TRANSPORTER-11 OBJECT A 
1 60468U 24149A   26068.74646182  .00010774  00000+0  36054-3 0  9993
2 60468  97.3780 149.0949 0003110 191.0010 169.1164 15.31141332 86830
STARLINK-35056          
1 66266U 25247B   26068.61890192  .00036669  00000+0  12443-2 0  9999
2 66266  53.1582 191.7170 0001107  83.7759 276.3368 15.30195557 21027
