[{"OBJECT_NAME":"TRANSPORTER-11 OBJECT A","OBJECT_ID":"2024-149A","EPOCH":"2026-03-09T17:54:54.302112","MEAN_MOTION":15.31141332,"ECCENTRICITY":0.00031096,"INCLINATION":97.378,"RA_OF_ASC_NODE":149.0949,"ARG_OF_PERICENTER":191.001,"MEAN_ANOMALY":169.1164,"EPHEMERIS_TYPE":0,"CLASSIFICATION_TYPE":"U","NORAD_CAT_ID":60468,"ELEMENT_SET_NO":999,"REV_AT_EPOCH":8683,"BSTAR":0.00036053677,"MEAN_MOTION_DOT":0.00010774,"MEAN_MOTION_DDOT":0},{"OBJECT_NAME":"STARLINK-35056","OBJECT_ID":"2025-247B","EPOCH":"2026-03-09T14:51:13.125888","MEAN_MOTION":15.30195557,"ECCENTRICITY":0.0001107,"INCLINATION":53.1582,"RA_OF_ASC_NODE":191.717,"ARG_OF_PERICENTER":83.7759,"MEAN_ANOMALY":276.3368,"EPHEMERIS_TYPE":0,"CLASSIFICATION_TYPE":"U","NORAD_CAT_ID":66266,"ELEMENT_SET_NO":999,"REV_AT_EPOCH":2102,"BSTAR":0.0012443,"MEAN_MOTION_DOT":0.00036669,"MEAN_MOTION_DDOT":0}]
